<?xml version="1.0" encoding="UTF-8"?>
<kml xmlns="http://www.opengis.net/kml/2.2" xmlns:gx="http://www.google.com/kml/ext/2.2" xmlns:kml="http://www.opengis.net/kml/2.2" xmlns:atom="http://www.w3.org/2005/Atom">
<Document id="1qmppiQAwiO_gtlRbH-9WX602T7ouwwId">
	<name>info</name>
	<visibility>0</visibility>
	<Schema name="__managed_schema" id="__managed_schema">
		<SimpleField type="int" name="1E3A06B6DD3D71730AAC">
			<displayName>Akurasi (m)</displayName>
		</SimpleField>
	</Schema>
	<gx:CascadingStyle kml:id="__managed_style_0F676EB8DF3FC5CFB062_highlight">
		<Style>
			<IconStyle>
				<scale>1.2</scale>
				<Icon>
					<href>https://earth.google.com/earth/document/icon?color=1976d2&amp;id=2000&amp;scale=4</href>
				</Icon>
				<hotSpot x="64" y="128" xunits="pixels" yunits="insetPixels"/>
			</IconStyle>
			<LabelStyle>
			</LabelStyle>
			<LineStyle>
				<color>ff2dc0fb</color>
				<width>2.78261</width>
			</LineStyle>
			<PolyStyle>
				<color>40ffffff</color>
			</PolyStyle>
			<BalloonStyle>
			</BalloonStyle>
		</Style>
	</gx:CascadingStyle>
	<gx:CascadingStyle kml:id="__managed_style_0F676EB8DF3FC5CFB062_normal">
		<Style>
			<IconStyle>
				<Icon>
					<href>https://earth.google.com/earth/document/icon?color=1976d2&amp;id=2000&amp;scale=4</href>
				</Icon>
				<hotSpot x="64" y="128" xunits="pixels" yunits="insetPixels"/>
			</IconStyle>
			<LabelStyle>
			</LabelStyle>
			<LineStyle>
				<color>ff2dc0fb</color>
				<width>1.85507</width>
			</LineStyle>
			<PolyStyle>
				<color>40ffffff</color>
			</PolyStyle>
			<BalloonStyle>
			</BalloonStyle>
		</Style>
	</gx:CascadingStyle>
	<StyleMap id="__managed_style_0F676EB8DF3FC5CFB062">
		<Pair>
			<key>normal</key>
			<styleUrl>#__managed_style_0F676EB8DF3FC5CFB062_normal</styleUrl>
		</Pair>
		<Pair>
			<key>highlight</key>
			<styleUrl>#__managed_style_0F676EB8DF3FC5CFB062_highlight</styleUrl>
		</Pair>
	</StyleMap>
	<gx:CascadingStyle kml:id="__managed_style_0C487999CA3FC5CE7D80_highlight">
		<Style>
			<IconStyle>
				<scale>1.2</scale>
				<Icon>
					<href>https://earth.google.com/earth/document/icon?color=1976d2&amp;id=2000&amp;scale=4</href>
				</Icon>
				<hotSpot x="64" y="128" xunits="pixels" yunits="insetPixels"/>
			</IconStyle>
			<LabelStyle>
			</LabelStyle>
			<LineStyle>
				<color>ff2dc0fb</color>
				<width>2.78261</width>
			</LineStyle>
			<PolyStyle>
				<color>40ffffff</color>
			</PolyStyle>
			<BalloonStyle>
			</BalloonStyle>
		</Style>
	</gx:CascadingStyle>
	<gx:CascadingStyle kml:id="__managed_style_0C487999CA3FC5CE7D80_normal">
		<Style>
			<IconStyle>
				<Icon>
					<href>https://earth.google.com/earth/document/icon?color=1976d2&amp;id=2000&amp;scale=4</href>
				</Icon>
				<hotSpot x="64" y="128" xunits="pixels" yunits="insetPixels"/>
			</IconStyle>
			<LabelStyle>
			</LabelStyle>
			<LineStyle>
				<color>ff2dc0fb</color>
				<width>1.85507</width>
			</LineStyle>
			<PolyStyle>
				<color>40ffffff</color>
			</PolyStyle>
			<BalloonStyle>
			</BalloonStyle>
		</Style>
	</gx:CascadingStyle>
	<gx:CascadingStyle kml:id="__managed_style_0ED051A46D3FC5CE7D82_highlight">
		<Style>
			<IconStyle>
				<scale>1.2</scale>
				<Icon>
					<href>https://earth.google.com/earth/document/icon?color=1976d2&amp;id=2000&amp;scale=4</href>
				</Icon>
				<hotSpot x="64" y="128" xunits="pixels" yunits="insetPixels"/>
			</IconStyle>
			<LabelStyle>
			</LabelStyle>
			<LineStyle>
				<color>ff2dc0fb</color>
				<width>2.78261</width>
			</LineStyle>
			<PolyStyle>
				<color>40ffffff</color>
			</PolyStyle>
			<BalloonStyle>
			</BalloonStyle>
		</Style>
	</gx:CascadingStyle>
	<gx:CascadingStyle kml:id="__managed_style_0ED051A46D3FC5CE7D82_normal">
		<Style>
			<IconStyle>
				<Icon>
					<href>https://earth.google.com/earth/document/icon?color=1976d2&amp;id=2000&amp;scale=4</href>
				</Icon>
				<hotSpot x="64" y="128" xunits="pixels" yunits="insetPixels"/>
			</IconStyle>
			<LabelStyle>
			</LabelStyle>
			<LineStyle>
				<color>ff2dc0fb</color>
				<width>1.85507</width>
			</LineStyle>
			<PolyStyle>
				<color>40ffffff</color>
			</PolyStyle>
			<BalloonStyle>
			</BalloonStyle>
		</Style>
	</gx:CascadingStyle>
	<StyleMap id="__managed_style_0C487999CA3FC5CE7D80">
		<Pair>
			<key>normal</key>
			<styleUrl>#__managed_style_0C487999CA3FC5CE7D80_normal</styleUrl>
		</Pair>
		<Pair>
			<key>highlight</key>
			<styleUrl>#__managed_style_0C487999CA3FC5CE7D80_highlight</styleUrl>
		</Pair>
	</StyleMap>
	<StyleMap id="__managed_style_0ED051A46D3FC5CE7D82">
		<Pair>
			<key>normal</key>
			<styleUrl>#__managed_style_0ED051A46D3FC5CE7D82_normal</styleUrl>
		</Pair>
		<Pair>
			<key>highlight</key>
			<styleUrl>#__managed_style_0ED051A46D3FC5CE7D82_highlight</styleUrl>
		</Pair>
	</StyleMap>
	<Placemark id="0BE27B0EE63D71730AAC">
		<name>spot</name>
		<LookAt>
			<longitude>110.3660380977763</longitude>
			<latitude>-7.945226336904135</latitude>
			<altitude>13.94003827036673</altitude>
			<heading>359.103971062943</heading>
			<tilt>0</tilt>
			<gx:fovy>34.99999999991348</gx:fovy>
			<range>551.5824101269391</range>
			<altitudeMode>absolute</altitudeMode>
		</LookAt>
		<styleUrl>#__managed_style_0ED051A46D3FC5CE7D82</styleUrl>
		<ExtendedData>
			<SchemaData schemaUrl="#__managed_schema">
				<SimpleData name="1E3A06B6DD3D71730AAC">0</SimpleData>
			</SchemaData>
		</ExtendedData>
		<Point>
			<extrude>1</extrude>
			<coordinates>110.3660932709192,-7.944858971979902,13.58294246119186</coordinates>
		</Point>
	</Placemark>
	<Placemark id="04B5C41FCC3D7176581D">
		<name>spot</name>
		<LookAt>
			<longitude>110.3612615984494</longitude>
			<latitude>-7.880379416875426</latitude>
			<altitude>47.07103464596651</altitude>
			<heading>342.4352974739927</heading>
			<tilt>0</tilt>
			<gx:fovy>35</gx:fovy>
			<range>505.6298063082796</range>
			<altitudeMode>absolute</altitudeMode>
		</LookAt>
		<styleUrl>#__managed_style_0C487999CA3FC5CE7D80</styleUrl>
		<Point>
			<coordinates>110.3611989512096,-7.880383826121289,47.07103464596651</coordinates>
		</Point>
	</Placemark>
	<Placemark id="06BF174AB03D71781AB0">
		<name>spot</name>
		<LookAt>
			<longitude>110.3479753658202</longitude>
			<latitude>-7.910833125967352</latitude>
			<altitude>33.59940676335159</altitude>
			<heading>358.6612304764604</heading>
			<tilt>0</tilt>
			<gx:fovy>35</gx:fovy>
			<range>339.2325128342418</range>
			<altitudeMode>absolute</altitudeMode>
		</LookAt>
		<styleUrl>#__managed_style_0C487999CA3FC5CE7D80</styleUrl>
		<Point>
			<coordinates>110.3479753658202,-7.910833125967352,33.59940676335159</coordinates>
		</Point>
	</Placemark>
	<Placemark id="05516901C83D717914E1">
		<name>spot</name>
		<LookAt>
			<longitude>110.3664439982658</longitude>
			<latitude>-7.880527194845622</latitude>
			<altitude>45.75699536968097</altitude>
			<heading>2.292142371178749</heading>
			<tilt>0</tilt>
			<gx:fovy>35</gx:fovy>
			<range>364.1828045258444</range>
			<altitudeMode>absolute</altitudeMode>
		</LookAt>
		<styleUrl>#__managed_style_0C487999CA3FC5CE7D80</styleUrl>
		<Point>
			<coordinates>110.3664439982658,-7.880527194845622,45.75699536968097</coordinates>
		</Point>
	</Placemark>
	<Placemark id="0AB8DE724C3D717A78F9">
		<name>spot</name>
		<LookAt>
			<longitude>110.3591016758522</longitude>
			<latitude>-7.874620362451176</latitude>
			<altitude>52.09383384250057</altitude>
			<heading>356.5743086618768</heading>
			<tilt>0</tilt>
			<gx:fovy>35</gx:fovy>
			<range>299.7967314499692</range>
			<altitudeMode>absolute</altitudeMode>
		</LookAt>
		<styleUrl>#__managed_style_0C487999CA3FC5CE7D80</styleUrl>
		<Point>
			<coordinates>110.3591016758522,-7.874620362451176,52.09383384250057</coordinates>
		</Point>
	</Placemark>
	<Placemark id="0109BDF19A3D717ADEDD">
		<name>spot</name>
		<LookAt>
			<longitude>110.3596221337164</longitude>
			<latitude>-7.873076033031001</latitude>
			<altitude>51.2383387447634</altitude>
			<heading>356.5742854025129</heading>
			<tilt>0</tilt>
			<gx:fovy>35</gx:fovy>
			<range>242.837456536945</range>
			<altitudeMode>absolute</altitudeMode>
		</LookAt>
		<styleUrl>#__managed_style_0C487999CA3FC5CE7D80</styleUrl>
		<Point>
			<coordinates>110.3596221337164,-7.873076033031001,51.2383387447634</coordinates>
		</Point>
	</Placemark>
	<Placemark id="0D9910B4E03D717E7A67">
		<name>spot</name>
		<LookAt>
			<longitude>110.3475917031398</longitude>
			<latitude>-7.869311368922222</latitude>
			<altitude>54.78251047333194</altitude>
			<heading>6.585575494698896</heading>
			<tilt>0</tilt>
			<gx:fovy>35</gx:fovy>
			<range>202.4176238166547</range>
			<altitudeMode>absolute</altitudeMode>
		</LookAt>
		<styleUrl>#__managed_style_0C487999CA3FC5CE7D80</styleUrl>
		<Point>
			<coordinates>110.3475917031398,-7.869311368922222,54.78251047333194</coordinates>
		</Point>
	</Placemark>
	<Placemark id="074403EEFF3D717F2561">
		<name>spot</name>
		<LookAt>
			<longitude>110.3460691764571</longitude>
			<latitude>-7.87838129521656</latitude>
			<altitude>49.37127280629581</altitude>
			<heading>6.585734308789211</heading>
			<tilt>0</tilt>
			<gx:fovy>35</gx:fovy>
			<range>325.4172729598577</range>
			<altitudeMode>absolute</altitudeMode>
		</LookAt>
		<styleUrl>#__managed_style_0C487999CA3FC5CE7D80</styleUrl>
		<Point>
			<coordinates>110.3460691764571,-7.87838129521656,49.37127280629581</coordinates>
		</Point>
	</Placemark>
	<Placemark id="0F8E8EBD553D718038C8">
		<name>spot</name>
		<LookAt>
			<longitude>110.3818247682795</longitude>
			<latitude>-7.879275537506873</latitude>
			<altitude>45.97878047120933</altitude>
			<heading>353.2373904281885</heading>
			<tilt>0</tilt>
			<gx:fovy>35</gx:fovy>
			<range>542.2996425177553</range>
			<altitudeMode>absolute</altitudeMode>
		</LookAt>
		<styleUrl>#__managed_style_0C487999CA3FC5CE7D80</styleUrl>
		<Point>
			<coordinates>110.3818247682795,-7.879275537506873,45.97878047120933</coordinates>
		</Point>
	</Placemark>
	<Placemark id="029AFFCDF43D7180B577">
		<name>spot</name>
		<LookAt>
			<longitude>110.3909194525889</longitude>
			<latitude>-7.870844133826714</latitude>
			<altitude>46.702882969115</altitude>
			<heading>328.7517532151676</heading>
			<tilt>0</tilt>
			<gx:fovy>35</gx:fovy>
			<range>268.2722527655642</range>
			<altitudeMode>absolute</altitudeMode>
		</LookAt>
		<styleUrl>#__managed_style_0C487999CA3FC5CE7D80</styleUrl>
		<Point>
			<coordinates>110.3909194525889,-7.870844133826714,46.702882969115</coordinates>
		</Point>
	</Placemark>
	<Placemark id="06CFFA03B53D71816D2D">
		<name>spot</name>
		<LookAt>
			<longitude>110.3930499351614</longitude>
			<latitude>-7.877949990700695</latitude>
			<altitude>46.30819474042931</altitude>
			<heading>359.3298576552741</heading>
			<tilt>0</tilt>
			<gx:fovy>35</gx:fovy>
			<range>526.4943276071426</range>
			<altitudeMode>absolute</altitudeMode>
		</LookAt>
		<styleUrl>#__managed_style_0C487999CA3FC5CE7D80</styleUrl>
		<Point>
			<coordinates>110.3930499351614,-7.877949990700695,46.30819474042931</coordinates>
		</Point>
	</Placemark>
	<Placemark id="0BDFCE1EA03D7186136D">
		<name>spot</name>
		<LookAt>
			<longitude>110.3627334987422</longitude>
			<latitude>-7.885793728780325</latitude>
			<altitude>45.73676207520355</altitude>
			<heading>339.1342077073976</heading>
			<tilt>0</tilt>
			<gx:fovy>30.00033389673303</gx:fovy>
			<range>223.2633249048377</range>
			<altitudeMode>absolute</altitudeMode>
		</LookAt>
		<styleUrl>#__managed_style_0C487999CA3FC5CE7D80</styleUrl>
		<Point>
			<coordinates>110.3627334987422,-7.885793728780325,45.73676207520355</coordinates>
		</Point>
	</Placemark>
	<Placemark id="0DBD6D43A03D76ED8462">
		<name>spot</name>
		<LookAt>
			<longitude>110.3548559251198</longitude>
			<latitude>-7.887081865067258</latitude>
			<altitude>44.29897665236572</altitude>
			<heading>345.850958062021</heading>
			<tilt>0</tilt>
			<gx:fovy>35</gx:fovy>
			<range>200.3042671294316</range>
			<altitudeMode>absolute</altitudeMode>
		</LookAt>
		<styleUrl>#__managed_style_0ED051A46D3FC5CE7D82</styleUrl>
		<Point>
			<coordinates>110.3548559251198,-7.887081865067258,44.29897665236572</coordinates>
		</Point>
	</Placemark>
	<Placemark id="044658B53C3DA99E8B48">
		<name>spot</name>
		<LookAt>
			<longitude>110.3653801176762</longitude>
			<latitude>-7.955458507368451</latitude>
			<altitude>9.38599915700998</altitude>
			<heading>2.580367839635826</heading>
			<tilt>0</tilt>
			<gx:fovy>30.00032687320004</gx:fovy>
			<range>813.4052409170545</range>
			<altitudeMode>absolute</altitudeMode>
		</LookAt>
		<styleUrl>#__managed_style_0ED051A46D3FC5CE7D82</styleUrl>
		<Point>
			<coordinates>110.3653801176762,-7.955458507368451,9.38599915700998</coordinates>
		</Point>
	</Placemark>
	<Placemark id="052FF846733DA9A04DF3">
		<name>spot</name>
		<LookAt>
			<longitude>110.4207212407328</longitude>
			<latitude>-7.833232993480189</latitude>
			<altitude>72.30059658638635</altitude>
			<heading>346.5098816303228</heading>
			<tilt>0</tilt>
			<gx:fovy>35</gx:fovy>
			<range>247.8822464583936</range>
			<altitudeMode>absolute</altitudeMode>
		</LookAt>
		<styleUrl>#__managed_style_0C487999CA3FC5CE7D80</styleUrl>
		<Point>
			<coordinates>110.4207212407328,-7.833232993480189,72.30059658638635</coordinates>
		</Point>
	</Placemark>
	<Placemark id="0AD8EAA4423FC5CFB03D">
		<name>spot</name>
		<LookAt>
			<longitude>110.3671078663063</longitude>
			<latitude>-7.900088542559809</latitude>
			<altitude>39.3538088896482</altitude>
			<heading>5.021045353387344</heading>
			<tilt>0</tilt>
			<gx:fovy>35</gx:fovy>
			<range>573.8123238040863</range>
			<altitudeMode>absolute</altitudeMode>
		</LookAt>
		<styleUrl>#__managed_style_0F676EB8DF3FC5CFB062</styleUrl>
		<Point>
			<coordinates>110.3671078663063,-7.900088542559809,39.3538088896482</coordinates>
		</Point>
	</Placemark>
	<Placemark id="0091B897643FC5D0A03C">
		<name>spot</name>
		<LookAt>
			<longitude>110.3681452705668</longitude>
			<latitude>-7.905126337981008</latitude>
			<altitude>35.93523552941438</altitude>
			<heading>15.23114378427321</heading>
			<tilt>0</tilt>
			<gx:fovy>35</gx:fovy>
			<range>400.2862265621662</range>
			<altitudeMode>absolute</altitudeMode>
		</LookAt>
		<styleUrl>#__managed_style_0F676EB8DF3FC5CFB062</styleUrl>
		<Point>
			<coordinates>110.3681452705668,-7.905126337981008,35.93523552941438</coordinates>
		</Point>
	</Placemark>
</Document>
</kml>
